NORAD_CAT_ID,OBJECT_NAME,OBJECT_TYPE,EPOCH,MEAN_MOTION,ECCENTRICITY,INCLINATION,RA_OF_ASC_NODE,ARG_OF_PERICENTER,MEAN_ANOMALY,BSTAR,MEAN_MOTION_DOT,MEAN_MOTION_DDOT,TLE_LINE0,TLE_LINE1,TLE_LINE2,SEMIMAJOR_AXIS,PERIOD,APOGEE,PERIGEE,DECAYED
53803.0,STARLINK-4727,PAYLOAD,2023-11-10 14:44:48,15.08844657,0.0001238,53.2166,105.3008,87.876,272.2373,1.7974e-06,-2.59e-06,0.0,0 STARLINK-4727,1 53803U 22111AG  23314.61445226 -.00000259  00000-0  17974-5 0  9999,2 53803  53.2166 105.3008 0001238  87.8760 272.2373 15.08844657 65691,6917.866,95.437,540.588,538.875,0.0
53803.0,STARLINK-4727,PAYLOAD,2023-11-10 17:55:34,15.08847275,0.0001265,53.2167,104.7061,87.7753,272.3384,3.1198e-05,2.09e-06,0.0,0 STARLINK-4727,1 53803U 22111AG  23314.74692933  .00000209  00000-0  31198-4 0  9999,2 53803  53.2167 104.7061 0001265  87.7753 272.3384 15.08847275 64900,6917.858,95.437,540.598,538.848,0.0
53803.0,STARLINK-4727,PAYLOAD,2023-11-11 09:49:26,15.08835555,0.0001377,53.2166,101.7328,90.0878,270.0272,0.00011259,1.504e-05,0.0,0 STARLINK-4727,1 53803U 22111AG  23315.40933484  .00001504  00000-0  11259-3 0  9996,2 53803  53.2166 101.7328 0001377  90.0878 270.0272 15.08835555 65002,6917.894,95.438,540.712,538.806,0.0
53803.0,STARLINK-4727,PAYLOAD,2023-11-11 14:35:35,15.08838035,0.0001261,53.2166,100.8408,90.1838,269.9299,9.5483e-05,1.232e-05,0.0,0 STARLINK-4727,1 53803U 22111AG  23315.60805340  .00001232  00000-0  95483-4 0  9997,2 53803  53.2166 100.8408 0001261  90.1838 269.9299 15.08838035 65844,6917.886,95.438,540.624,538.879,0.0
53803.0,STARLINK-4727,PAYLOAD,2023-11-11 16:10:58,15.08843463,0.0001209,53.2167,100.5426,97.8487,262.2643,6.9917e-05,8.25e-06,0.0,0 STARLINK-4727,1 53803U 22111AG  23315.67429031  .00000825  00000-0  69917-4 0  9993,2 53803  53.2167 100.5426 0001209  97.8487 262.2643 15.08843463 65859,6917.87,95.437,540.571,538.898,0.0
53803.0,STARLINK-4727,PAYLOAD,2023-11-12 12:50:59,15.08836232,0.0001217,53.2168,96.6779,90.8233,269.2899,4.8745e-05,4.88e-06,0.0,0 STARLINK-4727,1 53803U 22111AG  23316.53541665  .00000488  00000-0  48745-4 0  9998,2 53803  53.2168  96.6779 0001217  90.8233 269.2899 15.08836232 65987,6917.892,95.438,540.599,538.915,0.0
53803.0,STARLINK-4727,PAYLOAD,2023-11-12 16:01:46,15.08838344,0.0001242,53.2167,96.0835,84.9851,275.1283,4.9117e-05,4.94e-06,0.0,0 STARLINK-4727,1 53803U 22111AG  23316.66789572  .00000494  00000-0  49117-4 0  9994,2 53803  53.2167  96.0835 0001242  84.9851 275.1283 15.08838344 65193,6917.885,95.438,540.61,538.891,0.0
53803.0,STARLINK-4727,PAYLOAD,2023-11-13 12:41:46,15.08856323,0.0001161,53.2168,92.218,83.2531,276.8593,-9.9275e-05,-1.868e-05,0.0,0 STARLINK-4727,1 53803U 22111AG  23317.52900850 -.00001868  00000-0 -99275-4 0  9992,2 53803  53.2168  92.2180 0001161  83.2531 276.8593 15.08856323 66136,6917.83,95.437,540.499,538.892,0.0
53803.0,STARLINK-4727,PAYLOAD,2023-11-13 19:03:18,15.08848236,0.0001317,53.2173,91.0271,93.0221,267.0922,0.00011442,1.534e-05,0.0,0 STARLINK-4727,1 53803U 22111AG  23317.79396628  .00001534  00000-0  11442-3 0  9990,2 53803  53.2173  91.0271 0001317  93.0221 267.0922 15.08848236 66174,6917.855,95.437,540.631,538.809,0.0
53803.0,STARLINK-4727,PAYLOAD,2023-11-14 09:21:47,15.08835101,0.0001859,53.2167,88.3475,112.6,247.5189,3.5885e-06,-2.31e-06,0.0,0 STARLINK-4727,1 53803U 22111AG  23318.39013809 -.00000231  00000-0  35885-5 0  9997,2 53803  53.2167  88.3475 0001859 112.6000 247.5189 15.08835101 65451,6917.895,95.438,541.046,538.474,0.0
53803.0,STARLINK-4727,PAYLOAD,2023-11-14 12:32:33,15.08838234,0.0002033,53.2167,87.7503,119.7655,240.3539,4.1604e-06,-2.22e-06,0.0,0 STARLINK-4727,1 53803U 22111AG  23318.52261569 -.00000222  00000-0  41604-5 0  9996,2 53803  53.2167  87.7503 0002033 119.7655 240.3539 15.08838234 66287,6917.886,95.438,541.157,538.344,0.0
53803.0,STARLINK-4727,PAYLOAD,2023-11-14 15:43:20,15.08836187,0.0001318,53.2181,87.1629,89.5685,270.5458,4.7233e-05,4.64e-06,0.0,0 STARLINK-4727,1 53803U 22111AG  23318.65509812  .00000464  00000-0  47233-4 0  9996,2 53803  53.2181  87.1629 0001318  89.5685 270.5458 15.08836187 66301,6917.892,95.438,540.669,538.845,0.0
53803.0,STARLINK-4727,PAYLOAD,2023-11-15 07:37:11,15.088615,0.0001208,53.217,84.1889,96.6889,263.424,-0.00026882,-4.566e-05,0.0,0 STARLINK-4727,1 53803U 22111AG  23319.31749655 -.00004566  00000-0 -26882-3 0  9996,2 53803  53.2170  84.1889 0001208  96.6889 263.4240 15.08861500 65594,6917.815,95.436,540.515,538.844,0.0
53803.0,STARLINK-4727,PAYLOAD,2023-11-15 12:23:20,15.08876476,0.0001091,53.2176,83.2973,96.7686,263.3431,-0.00045843,-7.584e-05,0.0,0 STARLINK-4727,1 53803U 22111AG  23319.51621141 -.00007584  00000-0 -45843-3 0  9998,2 53803  53.2176  83.2973 0001091  96.7686 263.3431 15.08876476 66433,6917.769,95.435,540.389,538.879,0.0
53803.0,STARLINK-4727,PAYLOAD,2023-11-15 15:34:07,15.08847385,0.0001225,53.218,82.7031,91.445,268.6683,-4.7272e-06,-3.63e-06,0.0,0 STARLINK-4727,1 53803U 22111AG  23319.64869284 -.00000363  00000-0 -47272-5 0  9992,2 53803  53.2180  82.7031 0001225  91.4450 268.6683 15.08847385 66453,6917.858,95.437,540.57,538.875,0.0
53803.0,STARLINK-4727,PAYLOAD,2023-11-16 01:06:24,15.08853804,0.0001404,53.2184,80.9124,96.1654,263.9498,0.00023594,3.47e-05,0.0,0 STARLINK-4727,1 53803U 22111AG  23320.04611994  .00003470  00000-0  23594-3 0  9990,2 53803  53.2184  80.9124 0001404  96.1654 263.9498 15.08853804 65709,6917.838,95.437,540.674,538.732,0.0
53803.0,STARLINK-4727,PAYLOAD,2023-11-16 09:03:20,15.08854758,0.0001415,53.2187,79.4277,96.7558,263.3595,0.00020818,3.028e-05,0.0,0 STARLINK-4727,1 53803U 22111AG  23320.37731593  .00003028  00000-0  20818-3 0  9999,2 53803  53.2187  79.4277 0001415  96.7558 263.3595 15.08854758 66561,6917.835,95.437,540.679,538.721,0.0
53803.0,STARLINK-4727,PAYLOAD,2023-11-16 17:00:18,15.08825419,0.0001056,53.218,77.9451,88.4395,271.6718,-5.2535e-05,-1.123e-05,0.0,0 STARLINK-4727,1 53803U 22111AG  23320.70854385 -.00001123  00000-0 -52535-4 0  9999,2 53803  53.2180  77.9451 0001056  88.4395 271.6718 15.08825419 65806,6917.925,95.438,540.52,539.059,0.0
53803.0,STARLINK-4727,PAYLOAD,2023-11-17 12:04:55,15.08831282,0.0001076,53.218,74.3768,88.7337,271.3778,-4.2315e-05,-9.61e-06,0.0,0 STARLINK-4727,1 53803U 22111AG  23321.50342474 -.00000961  00000-0 -42315-4 0  9993,2 53803  53.2180  74.3768 0001076  88.7337 271.3778 15.08831282 65920,6917.907,95.438,540.516,539.028,0.0
53803.0,STARLINK-4727,PAYLOAD,2023-11-18 11:55:41,15.08879059,0.0001266,53.218,69.9159,71.8086,288.3044,-0.00056092,-9.213e-05,0.0,0 STARLINK-4727,1 53803U 22111AG  23322.49700471 -.00009213  00000-0 -56092-3 0  9992,2 53803  53.2180  69.9159 0001266  71.8086 288.3044 15.08879059 66074,6917.761,95.435,540.502,538.75,0.0
53803.0,STARLINK-4727,PAYLOAD,2023-11-18 13:31:03,15.0889417,0.0001414,53.2176,69.6181,68.9055,291.2089,-0.00080043,-0.00013023,0.0,0 STARLINK-4727,1 53803U 22111AG  23322.56323677 -.00013023  00000-0 -80043-3 0  9996,2 53803  53.2176  69.6181 0001414  68.9055 291.2089 15.08894170 66892,6917.715,95.434,540.558,538.602,0.0
53803.0,STARLINK-4727,PAYLOAD,2023-11-18 16:41:51,15.0883171,0.0001221,53.216,69.0224,82.6964,277.4167,0.00021232,3.092e-05,0.0,0 STARLINK-4727,1 53803U 22111AG  23322.69573942  .00003092  00000-0  21232-3 0  9990,2 53803  53.2160  69.0224 0001221  82.6964 277.4167 15.08831710 66103,6917.906,95.438,540.615,538.926,0.0
53803.0,STARLINK-4727,PAYLOAD,2023-11-19 13:21:52,15.0884454,0.0001325,53.218,65.1564,90.9912,269.1232,0.00016353,2.316e-05,0.0,0 STARLINK-4727,1 53803U 22111AG  23323.55685657  .00002316  00000-0  16353-3 0  9999,2 53803  53.2180  65.1564 0001325  90.9912 269.1232 15.08844540 67049,6917.867,95.437,540.648,538.815,0.0
53803.0,STARLINK-4727,PAYLOAD,2023-11-20 10:01:53,15.0884315,0.000134,53.2184,61.2929,86.5975,273.5171,2.6225e-05,1.3e-06,0.0,0 STARLINK-4727,1 53803U 22111AG  23324.41798105  .00000130  00000-0  26225-4 0  9990,2 53803  53.2184  61.2929 0001340  86.5975 273.5171 15.08843150 66363,6917.871,95.437,540.663,538.809,0.0
53803.0,STARLINK-4727,PAYLOAD,2023-11-20 13:12:39,15.08844841,0.0001357,53.2188,60.6976,90.5249,269.5898,4.7914e-05,4.75e-06,0.0,0 STARLINK-4727,1 53803U 22111AG  23324.55045886  .00000475  00000-0  47914-4 0  9996,2 53803  53.2188  60.6976 0001357  90.5249 269.5898 15.08844841 67190,6917.866,95.437,540.669,538.792,0.0
53803.0,STARLINK-4727,PAYLOAD,2023-11-21 09:52:41,15.08809687,0.0001215,53.2188,56.8326,96.9364,263.1766,0.00046001,7.035e-05,0.0,0 STARLINK-4727,1 53803U 22111AG  23325.41159091  .00007035  00000-0  46001-3 0  9990,2 53803  53.2188  56.8326 0001215  96.9364 263.1766 15.08809687 66515,6917.973,95.439,540.679,538.998,0.0
53803.0,STARLINK-4727,PAYLOAD,2023-11-21 13:03:26,15.08846828,0.0001298,53.2187,56.2379,88.0167,272.0974,-9.7147e-06,-4.43e-06,0.0,0 STARLINK-4727,1 53803U 22111AG  23325.54405838 -.00000443  00000-0 -97147-5 0  9994,2 53803  53.2187  56.2379 0001298  88.0167 272.0974 15.08846828 67340,6917.86,95.437,540.622,538.827,0.0
53803.0,STARLINK-4727,PAYLOAD,2023-11-22 11:18:49,15.08850267,0.0001375,53.2188,52.0751,91.8393,268.2757,0.00013974,1.937e-05,0.0,0 STARLINK-4727,1 53803U 22111AG  23326.47141134  .00001937  00000-0  13974-3 0  9994,2 53803  53.2188  52.0751 0001375  91.8393 268.2757 15.08850267 67481,6917.849,95.437,540.665,538.763,0.0
53803.0,STARLINK-4727,PAYLOAD,2023-11-23 11:09:37,15.08841296,0.0001545,53.2183,47.6149,101.5618,258.5548,4.859e-05,4.85e-06,0.0,0 STARLINK-4727,1 53803U 22111AG  23327.46501793  .00000485  00000-0  48590-4 0  9995,2 53803  53.2183  47.6149 0001545 101.5618 258.5548 15.08841296 66824,6917.876,95.437,540.81,538.673,0.0
53803.0,STARLINK-4727,PAYLOAD,2023-11-23 14:20:23,15.08845922,0.0001519,53.2187,47.0198,99.9912,260.1252,0.00011171,1.491e-05,0.0,0 STARLINK-4727,1 53803U 22111AG  23327.59749544  .00001491  00000-0  11171-3 0  9999,2 53803  53.2187  47.0198 0001519  99.9912 260.1252 15.08845922 67657,6917.862,95.437,540.778,538.676,0.0
